[{"OBJECT_NAME":"SL-8 R/B","OBJECT_ID":"1979-089B","EPOCH":"2026-03-13T10:07:02.086752","MEAN_MOTION":14.42353288,"ECCENTRICITY":0.00171143,"INCLINATION":74.0667,"RA_OF_ASC_NODE":84.1345,"ARG_OF_PERICENTER":256.4414,"MEAN_ANOMALY":103.4836,"EPHEMERIS_TYPE":0,"CLASSIFICATION_TYPE":"U","NORAD_CAT_ID":11574,"ELEMENT_SET_NO":999,"REV_AT_EPOCH":43664,"BSTAR":0.00010292592,"MEAN_MOTION_DOT":3.14e-6,"MEAN_MOTION_DDOT":0},{"OBJECT_NAME":"SL-14 R/B","OBJECT_ID":"1980-005B","EPOCH":"2026-03-13T14:53:11.615712","MEAN_MOTION":14.90935453,"ECCENTRICITY":0.0016496,"INCLINATION":82.5137,"RA_OF_ASC_NODE":303.5078,"ARG_OF_PERICENTER":145.6854,"MEAN_ANOMALY":214.5434,"EPHEMERIS_TYPE":0,"CLASSIFICATION_TYPE":"U","NORAD_CAT_ID":11672,"ELEMENT_SET_NO":999,"REV_AT_EPOCH":47707,"BSTAR":6.4044884e-5,"MEAN_MOTION_DOT":6.59e-6,"MEAN_MOTION_DDOT":0},{"OBJECT_NAME":"SL-8 R/B","OBJECT_ID":"1981-003B","EPOCH":"2026-03-13T13:50:36.614688","MEAN_MOTION":15.11134202,"ECCENTRICITY":0.02618108,"INCLINATION":82.9385,"RA_OF_ASC_NODE":286.4298,"ARG_OF_PERICENTER":165.1006,"MEAN_ANOMALY":195.8138,"EPHEMERIS_TYPE":0,"CLASSIFICATION_TYPE":"U","NORAD_CAT_ID":12139,"ELEMENT_SET_NO":999,"REV_AT_EPOCH":31526,"BSTAR":0.00056393532,"MEAN_MOTION_DOT":0.00022075,"MEAN_MOTION_DDOT":0},{"OBJECT_NAME":"SL-3 R/B","OBJECT_ID":"1981-046B","EPOCH":"2026-03-13T13:09:10.852128","MEAN_MOTION":15.42099832,"ECCENTRICITY":0.00192379,"INCLINATION":81.2297,"RA_OF_ASC_NODE":285.1104,"ARG_OF_PERICENTER":9.0136,"MEAN_ANOMALY":351.1448,"EPHEMERIS_TYPE":0,"CLASSIFICATION_TYPE":"U","NORAD_CAT_ID":12465,"ELEMENT_SET_NO":999,"REV_AT_EPOCH":43902,"BSTAR":0.00031629616,"MEAN_MOTION_DOT":0.00013651,"MEAN_MOTION_DDOT":0},{"OBJECT_NAME":"SL-3 R/B","OBJECT_ID":"1981-103B","EPOCH":"2026-03-13T14:05:09.086208","MEAN_MOTION":15.21429807,"ECCENTRICITY":0.00123429,"INCLINATION":81.1587,"RA_OF_ASC_NODE":208.86,"ARG_OF_PERICENTER":272.7713,"MEAN_ANOMALY":87.2105,"EPHEMERIS_TYPE":0,"CLASSIFICATION_TYPE":"U","NORAD_CAT_ID":12904,"ELEMENT_SET_NO":999,"REV_AT_EPOCH":97382,"BSTAR":0.0003308134,"MEAN_MOTION_DOT":7.467e-5,"MEAN_MOTION_DDOT":0},{"OBJECT_NAME":"SL-3 R/B","OBJECT_ID":"1982-013B","EPOCH":"2026-03-13T14:14:26.635776","MEAN_MOTION":15.22058759,"ECCENTRICITY":0.00228569,"INCLINATION":81.1759,"RA_OF_ASC_NODE":156.196,"ARG_OF_PERICENTER":164.2953,"MEAN_ANOMALY":195.8993,"EPHEMERIS_TYPE":0,"CLASSIFICATION_TYPE":"U","NORAD_CAT_ID":13068,"ELEMENT_SET_NO":999,"REV_AT_EPOCH":40494,"BSTAR":0.00022224711,"MEAN_MOTION_DOT":5.144e-5,"MEAN_MOTION_DDOT":0},{"OBJECT_NAME":"SL-3 R/B","OBJECT_ID":"1982-039B","EPOCH":"2026-03-13T13:35:21.903072","MEAN_MOTION":15.10107188,"ECCENTRICITY":0.00295603,"INCLINATION":81.1577,"RA_OF_ASC_NODE":211.4926,"ARG_OF_PERICENTER":311.7992,"MEAN_ANOMALY":48.0708,"EPHEMERIS_TYPE":0,"CLASSIFICATION_TYPE":"U","NORAD_CAT_ID":13154,"ELEMENT_SET_NO":999,"REV_AT_EPOCH":38222,"BSTAR":0.00019914805,"MEAN_MOTION_DOT":3.3e-5,"MEAN_MOTION_DDOT":0},{"OBJECT_NAME":"SL-3 R/B","OBJECT_ID":"1982-079B","EPOCH":"2026-03-13T14:30:01.437984","MEAN_MOTION":15.24863153,"ECCENTRICITY":0.00252327,"INCLINATION":81.1478,"RA_OF_ASC_NODE":188.4554,"ARG_OF_PERICENTER":151.6305,"MEAN_ANOMALY":208.6308,"EPHEMERIS_TYPE":0,"CLASSIFICATION_TYPE":"U","NORAD_CAT_ID":13403,"ELEMENT_SET_NO":999,"REV_AT_EPOCH":37829,"BSTAR":0.00033569977,"MEAN_MOTION_DOT":8.444e-5,"MEAN_MOTION_DDOT":0},{"OBJECT_NAME":"SL-14 R/B","OBJECT_ID":"1982-092B","EPOCH":"2026-03-13T15:11:42.843264","MEAN_MOTION":14.86670719,"ECCENTRICITY":0.00188393,"INCLINATION":82.5689,"RA_OF_ASC_NODE":137.7115,"ARG_OF_PERICENTER":289.4979,"MEAN_ANOMALY":230.7637,"EPHEMERIS_TYPE":0,"CLASSIFICATION_TYPE":"U","NORAD_CAT_ID":13553,"ELEMENT_SET_NO":999,"REV_AT_EPOCH":32951,"BSTAR":5.6604254e-5,"MEAN_MOTION_DOT":5.28e-6,"MEAN_MOTION_DDOT":0},{"OBJECT_NAME":"SL-3 R/B","OBJECT_ID":"1983-010B","EPOCH":"2026-03-13T06:07:19.512480","MEAN_MOTION":15.46493922,"ECCENTRICITY":0.0017762,"INCLINATION":81.1059,"RA_OF_ASC_NODE":357.8766,"ARG_OF_PERICENTER":39.4433,"MEAN_ANOMALY":320.8101,"EPHEMERIS_TYPE":0,"CLASSIFICATION_TYPE":"U","NORAD_CAT_ID":13819,"ELEMENT_SET_NO":999,"REV_AT_EPOCH":35849,"BSTAR":0.00034825319,"MEAN_MOTION_DOT":0.00017425,"MEAN_MOTION_DDOT":0},{"OBJECT_NAME":"SL-3 R/B","OBJECT_ID":"1983-075B","EPOCH":"2026-03-13T14:09:02.291040","MEAN_MOTION":15.38519634,"ECCENTRICITY":0.00205022,"INCLINATION":97.6145,"RA_OF_ASC_NODE":77.3147,"ARG_OF_PERICENTER":211.0987,"MEAN_ANOMALY":148.9045,"EPHEMERIS_TYPE":0,"CLASSIFICATION_TYPE":"U","NORAD_CAT_ID":14208,"ELEMENT_SET_NO":999,"REV_AT_EPOCH":33075,"BSTAR":0.0003358042,"MEAN_MOTION_DOT":0.00012774,"MEAN_MOTION_DDOT":0},{"OBJECT_NAME":"COSMOS 1536","OBJECT_ID":"1984-013A","EPOCH":"2026-03-13T07:57:21.982752","MEAN_MOTION":15.23875777,"ECCENTRICITY":0.00124927,"INCLINATION":82.543,"RA_OF_ASC_NODE":104.2299,"ARG_OF_PERICENTER":269.0469,"MEAN_ANOMALY":90.9336,"EPHEMERIS_TYPE":0,"CLASSIFICATION_TYPE":"U","NORAD_CAT_ID":14699,"ELEMENT_SET_NO":999,"REV_AT_EPOCH":27317,"BSTAR":0.00023981746,"MEAN_MOTION_DOT":5.829e-5,"MEAN_MOTION_DDOT":0},{"OBJECT_NAME":"SL-14 R/B","OBJECT_ID":"1984-027B","EPOCH":"2026-03-13T11:08:12.472800","MEAN_MOTION":14.85980961,"ECCENTRICITY":0.0017078,"INCLINATION":82.5391,"RA_OF_ASC_NODE":241.4718,"ARG_OF_PERICENTER":324.9001,"MEAN_ANOMALY":35.1089,"EPHEMERIS_TYPE":0,"CLASSIFICATION_TYPE":"U","NORAD_CAT_ID":14820,"ELEMENT_SET_NO":999,"REV_AT_EPOCH":24819,"BSTAR":6.7951071e-5,"MEAN_MOTION_DOT":6.19e-6,"MEAN_MOTION_DDOT":0},{"OBJECT_NAME":"SL-8 R/B","OBJECT_ID":"1985-006B","EPOCH":"2026-03-13T11:29:10.238208","MEAN_MOTION":14.37786143,"ECCENTRICITY":0.00182905,"INCLINATION":74.0432,"RA_OF_ASC_NODE":254.1757,"ARG_OF_PERICENTER":171.0261,"MEAN_ANOMALY":217.7627,"EPHEMERIS_TYPE":0,"CLASSIFICATION_TYPE":"U","NORAD_CAT_ID":15483,"ELEMENT_SET_NO":999,"REV_AT_EPOCH":15457,"BSTAR":0.00013925956,"MEAN_MOTION_DOT":3.94e-6,"MEAN_MOTION_DDOT":0},{"OBJECT_NAME":"SL-12 R/B(2)","OBJECT_ID":"1985-042D","EPOCH":"2026-03-13T10:37:05.989152","MEAN_MOTION":14.21983557,"ECCENTRICITY":0.00330851,"INCLINATION":71.1063,"RA_OF_ASC_NODE":79.7994,"ARG_OF_PERICENTER":121.9535,"MEAN_ANOMALY":41.1642,"EPHEMERIS_TYPE":0,"CLASSIFICATION_TYPE":"U","NORAD_CAT_ID":15772,"ELEMENT_SET_NO":999,"REV_AT_EPOCH":11492,"BSTAR":0.00010268085,"MEAN_MOTION_DOT":1.81e-6,"MEAN_MOTION_DDOT":0},{"OBJECT_NAME":"SL-14 R/B","OBJECT_ID":"1985-069B","EPOCH":"2026-03-13T07:30:46.577376","MEAN_MOTION":14.86437913,"ECCENTRICITY":0.00188038,"INCLINATION":82.5291,"RA_OF_ASC_NODE":21.5263,"ARG_OF_PERICENTER":175.6166,"MEAN_ANOMALY":184.522,"EPHEMERIS_TYPE":0,"CLASSIFICATION_TYPE":"U","NORAD_CAT_ID":15945,"ELEMENT_SET_NO":999,"REV_AT_EPOCH":17337,"BSTAR":6.9922423e-5,"MEAN_MOTION_DOT":6.44e-6,"MEAN_MOTION_DDOT":0},{"OBJECT_NAME":"SL-16 R/B","OBJECT_ID":"1985-097B","EPOCH":"2026-03-13T14:34:58.400832","MEAN_MOTION":14.16598191,"ECCENTRICITY":0.00098026,"INCLINATION":71.002,"RA_OF_ASC_NODE":132.3065,"ARG_OF_PERICENTER":254.8967,"MEAN_ANOMALY":266.9757,"EPHEMERIS_TYPE":0,"CLASSIFICATION_TYPE":"U","NORAD_CAT_ID":16182,"ELEMENT_SET_NO":999,"REV_AT_EPOCH":8778,"BSTAR":-7.938841e-6,"MEAN_MOTION_DOT":-6.4e-7,"MEAN_MOTION_DDOT":0}]
